OBJECT_NAME,OBJECT_ID,EPOCH,MEAN_MOTION,ECCENTRICITY,INCLINATION,RA_OF_ASC_NODE,ARG_OF_PERICENTER,MEAN_ANOMALY,EPHEMERIS_TYPE,CLASSIFICATION_TYPE,NORAD_CAT_ID,ELEMENT_SET_NO,REV_AT_EPOCH,BSTAR,MEAN_MOTION_DOT,MEAN_MOTION_DDOT
STARLINK-34659,2025-157K,2026-06-09T11:22:13.760832,15.31732549,.0000901,53.1592,278.8258,43.1107,316.9965,0,U,64913,999,5013,.10147E-2,.31288E-3,0
STARLINK-34571,2025-157L,2026-06-09T01:38:53.898432,15.34439627,.00013958,53.1609,281.2696,75.4901,284.6256,0,U,64914,999,5006,.8304794E-3,.27822E-3,0
STARLINK-34636,2025-157M,2026-06-09T11:59:07.549152,15.34408163,.0001796,53.1586,278.9810,85.6840,274.4368,0,U,64915,999,5018,.80736E-3,.27007E-3,0
STARLINK-34695,2025-157N,2026-06-09T11:17:32.135712,15.34415220,.0001422,53.1582,271.7106,117.3094,242.8053,0,U,64916,999,5028,.83343E-3,.27901E-3,0
STARLINK-34653,2025-157P,2026-06-09T12:15:59.275872,15.31720527,.0001835,53.1605,279.0495,83.4243,276.6967,0,U,64917,999,5013,.17577E-2,.54614E-3,0
STARLINK-34611,2025-157Q,2026-06-09T11:47:00.227040,15.34406728,.0001628,53.1588,278.9332,83.2875,276.8313,0,U,64918,999,5018,.73579E-3,.24571E-3,0
STARLINK-34599,2025-157R,2026-06-09T01:23:23.709984,15.30221528,.00003936,53.1617,281.1894,62.8603,297.2438,0,U,64919,999,5011,.5814606E-3,.16913E-3,0
STARLINK-34069,2025-157S,2026-06-09T01:29:49.055712,15.34421207,.00006018,53.1610,281.2308,119.7428,240.3634,0,U,64920,999,5011,.83326934E-3,.27901E-3,0
STARLINK-34699,2025-157T,2026-06-09T11:43:58.068192,15.34405410,.0001135,53.1592,278.9183,90.3657,269.7476,0,U,64921,999,5018,.5058E-3,.16754E-3,0
STARLINK-34700,2025-157U,2026-06-09T01:24:55.389888,15.30214008,.00008732,53.1620,281.2057,106.3749,253.7348,0,U,64922,999,5006,.5476251E-3,.15902E-3,0
STARLINK-34643,2025-157V,2026-06-09T12:14:16.319040,15.34448422,.0001357,53.1611,279.0452,89.5461,270.5697,0,U,64923,999,5018,.1083E-2,.3645E-3,0
STARLINK-34199,2025-157W,2026-06-09T01:38:17.546496,15.31750656,.00012328,53.1596,280.5550,84.4354,275.6788,0,U,64924,999,5007,.89405526E-3,.27525E-3,0
STARLINK-34579,2025-157X,2026-06-09T12:00:02.998944,15.34401251,.000142,53.1598,279.1153,74.2618,219.6299,0,U,64925,999,585,-.4218E-3,-.14601E-3,0
STARLINK-34543,2025-157Y,2026-06-09T12:09:15.990912,15.31709356,.0003079,53.1594,279.0237,93.1135,267.0218,0,U,64926,999,5013,.7532E-3,.23088E-3,0
STARLINK-34661,2025-157Z,2026-06-09T12:11:14.250912,15.34425607,.0001452,53.1623,279.0238,75.2726,284.8438,0,U,64927,999,4990,.55558E-3,.18456E-3,0
STARLINK-34248,2025-157AA,2026-06-09T11:21:09.640800,15.30225937,.0001655,53.1592,279.5223,31.5715,328.5385,0,U,64928,999,5017,.86652E-3,.25413E-3,0
STARLINK-34290,2025-157AB,2026-06-09T01:40:07.137120,15.30235352,.00010618,53.1614,281.2732,73.3848,286.7269,0,U,64929,999,5011,.60853061E-3,.17726E-3,0
STARLINK-34220,2025-157AC,2026-06-09T12:49:27.870240,15.31738502,.0001185,53.1598,278.4792,77.9790,282.1344,0,U,64930,999,5008,.98413E-3,.30335E-3,0
STARLINK-34715,2025-157AD,2026-06-09T12:00:02.998944,15.33535484,.000169,53.1602,279.1949,100.0465,152.0572,0,U,64931,999,575,.17615E-3,.5422E-4,0
STARLINK-34705,2025-158A,2026-06-09T08:12:32.884992,15.05653568,.0003051,97.3875,23.6164,89.3673,270.7904,0,U,64932,999,4914,.42238E-3,.6043E-4,0
STARLINK-34737,2025-158B,2026-06-09T04:45:09.568224,15.05661307,.0002,97.3835,23.5039,94.8085,265.3370,0,U,64933,999,4912,.29409E-3,.4189E-4,0
STARLINK-34775,2025-158C,2026-06-09T04:41:10.680864,15.05661152,.00022667,97.3843,23.5144,99.0170,261.1314,0,U,64934,999,4912,.32000713E-3,.4564E-4,0
STARLINK-34726,2025-158D,2026-06-09T12:07:46.699104,15.05663172,.0002017,97.3831,23.8668,89.0571,271.0887,0,U,64935,999,4917,.31975E-3,.4561E-4,0
STARLINK-34529,2025-158E,2026-06-09T08:04:32.315232,15.05657074,.0002736,97.3840,23.6325,90.0833,270.0708,0,U,64936,999,4914,.14357E-3,.2015E-4,0
STARLINK-34743,2025-158F,2026-06-09T04:37:11.437536,15.05658328,.00025111,97.3868,23.5202,93.3139,266.8375,0,U,64937,999,4912,.1420171E-4,.147E-5,0
STARLINK-34730,2025-158G,2026-06-09T08:28:28.542432,15.05657691,.000227,97.3841,23.7545,80.9523,279.1961,0,U,64938,999,4915,.37633E-3,.5377E-4,0
STARLINK-34714,2025-158H,2026-06-09T08:32:27.413376,15.05657144,.000164,97.3891,23.7621,97.8786,262.2627,0,U,64939,999,4899,.17918E-3,.2529E-4,0
STARLINK-34755,2025-158J,2026-06-09T07:58:08.639616,15.04844549,.0002704,97.3832,23.9842,86.8759,273.2777,0,U,64940,999,4916,.23342E-3,.324E-4,0
STARLINK-34740,2025-158K,2026-06-09T12:03:49.042944,15.05664827,.0002253,97.3844,23.8701,78.0170,282.1310,0,U,64941,999,4911,.51858E-3,.7436E-4,0
STARLINK-34742,2025-158L,2026-06-09T11:55:49.202400,15.05662471,.0002174,97.3837,23.8704,91.7975,268.3501,0,U,64942,999,4917,.27791E-3,.3956E-4,0
