STARLINK-34659          
1 64913U 25157K   26160.47377038  .00031288  00000+0  10147-2 0  9993
2 64913  53.1592 278.8258 0000901  43.1107 316.9965 15.31732549 50134
STARLINK-34571          
1 64914U 25157L   26160.06867938  .00027822  00000+0  83048-3 0  9992
2 64914  53.1609 281.2696 0001395  75.4901 284.6256 15.34439627 50066
STARLINK-34636          
1 64915U 25157M   26160.49939293  .00027007  00000+0  80736-3 0  9990
2 64915  53.1586 278.9810 0001796  85.6840 274.4368 15.34408163 50187
STARLINK-34695          
1 64916U 25157N   26160.47051083  .00027901  00000+0  83343-3 0  9991
2 64916  53.1582 271.7106 0001422 117.3094 242.8053 15.34415220 50286
STARLINK-34653          
1 64917U 25157P   26160.51110273  .00054614  00000+0  17577-2 0  9990
2 64917  53.1605 279.0495 0001835  83.4243 276.6967 15.31720527 50131
STARLINK-34611          
1 64918U 25157Q   26160.49097485  .00024571  00000+0  73579-3 0  9991
2 64918  53.1588 278.9332 0001628  83.2875 276.8313 15.34406728 50188
STARLINK-34599          
1 64919U 25157R   26160.05791331  .00016913  00000+0  58146-3 0  9999
2 64919  53.1617 281.1894 0000393  62.8603 297.2438 15.30221528 50118
STARLINK-34069          
1 64920U 25157S   26160.06237333  .00027901  00000+0  83327-3 0  9997
2 64920  53.1610 281.2308 0000601 119.7428 240.3634 15.34421207 50110
STARLINK-34699          
1 64921U 25157T   26160.48886653  .00016754  00000+0  50580-3 0  9998
2 64921  53.1592 278.9183 0001135  90.3657 269.7476 15.34405410 50189
STARLINK-34700          
1 64922U 25157U   26160.05897442  .00015902  00000+0  54763-3 0  9991
2 64922  53.1620 281.2057 0000873 106.3749 253.7348 15.30214008 50062
STARLINK-34643          
1 64923U 25157V   26160.50991110  .00036450  00000+0  10830-2 0  9996
2 64923  53.1611 279.0452 0001357  89.5461 270.5697 15.34448422 50188
STARLINK-34199          
1 64924U 25157W   26160.06825864  .00027525  00000+0  89406-3 0  9999
2 64924  53.1596 280.5550 0001232  84.4354 275.6788 15.31750656 50071
STARLINK-34579          
1 64925U 25157X   26160.50003471 -.00014601  00000+0 -42180-3 0  9992
2 64925  53.1598 279.1153 0001420  74.2618 219.6299 15.34401251  5854
STARLINK-34543          
1 64926U 25157Y   26160.50643508  .00023088  00000+0  75320-3 0  9993
2 64926  53.1594 279.0237 0003079  93.1135 267.0218 15.31709356 50132
STARLINK-34661          
1 64927U 25157Z   26160.50780383  .00018456  00000+0  55558-3 0  9991
2 64927  53.1623 279.0238 0001452  75.2726 284.8438 15.34425607 49908
STARLINK-34248          
1 64928U 25157AA  26160.47302825  .00025413  00000+0  86652-3 0  9999
2 64928  53.1592 279.5223 0001655  31.5715 328.5385 15.30225937 50179
STARLINK-34290          
1 64929U 25157AB  26160.06952705  .00017726  00000+0  60853-3 0  9996
2 64929  53.1614 281.2732 0001061  73.3848 286.7269 15.30235352 50114
STARLINK-34220          
1 64930U 25157AC  26160.53435035  .00030335  00000+0  98413-3 0  9996
2 64930  53.1598 278.4792 0001185  77.9790 282.1344 15.31738502 50080
STARLINK-34715          
1 64931U 25157AD  26160.50003471  .00005422  00000+0  17615-3 0  9993
2 64931  53.1602 279.1949 0001690 100.0465 152.0572 15.33535484  5755
STARLINK-34705          
1 64932U 25158A   26160.34204728  .00006043  00000+0  42238-3 0  9994
2 64932  97.3875  23.6164 0003051  89.3673 270.7904 15.05653568 49143
STARLINK-34737          
1 64933U 25158B   26160.19802741  .00004189  00000+0  29409-3 0  9991
2 64933  97.3835  23.5039 0002000  94.8085 265.3370 15.05661307 49126
STARLINK-34775          
1 64934U 25158C   26160.19526251  .00004564  00000+0  32001-3 0  9990
2 64934  97.3843  23.5144 0002266  99.0170 261.1314 15.05661152 49129
STARLINK-34726          
1 64935U 25158D   26160.50540161  .00004561  00000+0  31975-3 0  9998
2 64935  97.3831  23.8668 0002017  89.0571 271.0887 15.05663172 49173
STARLINK-34529          
1 64936U 25158E   26160.33648513  .00002015  00000+0  14357-3 0  9997
2 64936  97.3840  23.6325 0002736  90.0833 270.0708 15.05657074 49145
STARLINK-34743          
1 64937U 25158F   26160.19249349  .00000147  00000+0  14202-4 0  9990
2 64937  97.3868  23.5202 0002511  93.3139 266.8375 15.05658328 49129
STARLINK-34730          
1 64938U 25158G   26160.35310813  .00005377  00000+0  37633-3 0  9996
2 64938  97.3841  23.7545 0002270  80.9523 279.1961 15.05657691 49157
STARLINK-34714          
1 64939U 25158H   26160.35587284  .00002529  00000+0  17918-3 0  9995
2 64939  97.3891  23.7621 0001640  97.8786 262.2627 15.05657144 48992
STARLINK-34755          
1 64940U 25158J   26160.33204444  .00003240  00000+0  23342-3 0  9998
2 64940  97.3832  23.9842 0002704  86.8759 273.2777 15.04844549 49160
STARLINK-34740          
1 64941U 25158K   26160.50265096  .00007436  00000+0  51858-3 0  9992
2 64941  97.3844  23.8701 0002253  78.0170 282.1310 15.05664827 49113
STARLINK-34742          
1 64942U 25158L   26160.49709725  .00003956  00000+0  27791-3 0  9995
2 64942  97.3837  23.8704 0002174  91.7975 268.3501 15.05662471 49173
